NORAD_CAT_ID,OBJECT_NAME,OBJECT_TYPE,EPOCH,MEAN_MOTION,ECCENTRICITY,INCLINATION,RA_OF_ASC_NODE,ARG_OF_PERICENTER,MEAN_ANOMALY,BSTAR,MEAN_MOTION_DOT,MEAN_MOTION_DDOT,TLE_LINE0,TLE_LINE1,TLE_LINE2,SEMIMAJOR_AXIS,PERIOD,APOGEE,PERIGEE,DECAYED
49444.0,STARLINK-3126,PAYLOAD,2023-04-12 06:08:50,15.08836884,8.92e-05,53.2134,298.5684,87.2122,272.8972,3.7531e-05,3.1e-06,0.0,0 STARLINK-3126,1 49444U 21104AN  23102.25613879  .00000310  00000-0  37531-4 0  9999,2 49444  53.2134 298.5684 0000892  87.2122 272.8972 15.08836884 78528,6917.89,95.438,540.372,539.138,0.0
49444.0,STARLINK-3126,PAYLOAD,2023-04-13 05:59:37,15.08841713,0.0001575,53.2203,294.1073,78.4054,281.7115,0.00018523,2.661e-05,0.0,0 STARLINK-3126,1 49444U 21104AN  23103.24974265  .00002661  00000-0  18523-3 0  9998,2 49444  53.2203 294.1073 0001575  78.4054 281.7115 15.08841713 78675,6917.875,95.437,540.83,538.651,0.0
49444.0,STARLINK-3126,PAYLOAD,2023-04-13 18:42:42,15.0884745,0.0001362,53.2146,291.7296,78.4699,281.6446,0.00016221,2.295e-05,0.0,0 STARLINK-3126,1 49444U 21104AN  23103.77965943  .00002295  00000-0  16221-3 0  9995,2 49444  53.2146 291.7296 0001362  78.4699 281.6446 15.08847450 79828,6917.858,95.437,540.665,538.78,0.0
49444.0,STARLINK-3126,PAYLOAD,2023-04-14 05:50:24,15.08839445,0.0001618,53.2131,289.6481,76.4271,283.6901,5.0665e-05,5.18e-06,0.0,0 STARLINK-3126,1 49444U 21104AN  23104.24334295  .00000518  00000-0  50665-4 0  9995,2 49444  53.2131 289.6481 0001618  76.4271 283.6901 15.08839445 79892,6917.882,95.438,540.866,538.628,0.0
49444.0,STARLINK-3126,PAYLOAD,2023-04-14 12:11:57,15.08842566,0.0001862,53.214,288.4588,69.6825,290.4367,0.0001251,1.704e-05,0.0,0 STARLINK-3126,1 49444U 21104AN  23104.50830069  .00001704  00000-0  12510-3 0  9998,2 49444  53.2140 288.4588 0001862  69.6825 290.4367 15.08842566 78863,6917.873,95.437,541.026,538.449,0.0
49444.0,STARLINK-3126,PAYLOAD,2023-04-15 05:41:11,15.08845551,0.0001185,53.214,285.1895,66.5271,293.5845,0.00030552,4.579e-05,0.0,0 STARLINK-3126,1 49444U 21104AN  23105.23693948  .00004579  00000-0  30552-3 0  9991,2 49444  53.2140 285.1895 0001185  66.5271 293.5845 15.08845551 78971,6917.863,95.437,540.548,538.909,0.0
49444.0,STARLINK-3126,PAYLOAD,2023-04-15 18:24:16,15.08849603,0.0001371,53.2159,282.8089,87.3908,272.7241,0.00014707,2.054e-05,0.0,0 STARLINK-3126,1 49444U 21104AN  23105.76685654  .00002054  00000-0  14707-3 0  9994,2 49444  53.2159 282.8089 0001371  87.3908 272.7241 15.08849603 79056,6917.851,95.437,540.664,538.768,0.0
49444.0,STARLINK-3126,PAYLOAD,2023-04-15 21:35:02,15.08855097,0.0001232,53.217,282.2146,82.4246,277.6886,0.00019819,2.869e-05,0.0,0 STARLINK-3126,1 49444U 21104AN  23105.89933321  .00002869  00000-0  19819-3 0  9998,2 49444  53.2170 282.2146 0001232  82.4246 277.6886 15.08855097 79079,6917.834,95.437,540.552,538.847,0.0
49444.0,STARLINK-3126,PAYLOAD,2023-04-16 18:15:03,15.08840247,0.0001208,53.2159,278.3483,97.1899,262.923,6.1984e-05,6.99e-06,0.0,0 STARLINK-3126,1 49444U 21104AN  23106.76046155  .00000699  00000-0  61984-4 0  9995,2 49444  53.2159 278.3483 0001208  97.1899 262.9230 15.08840247 80271,6917.88,95.438,540.58,538.909,0.0
49444.0,STARLINK-3126,PAYLOAD,2023-04-16 21:25:50,15.08842896,0.0001187,53.2152,277.7517,98.6573,261.4554,0.00010348,1.36e-05,0.0,0 STARLINK-3126,1 49444U 21104AN  23106.89294011  .00001360  00000-0  10348-3 0  9998,2 49444  53.2152 277.7517 0001187  98.6573 261.4554 15.08842896 79224,6917.872,95.437,540.558,538.915,0.0
49444.0,STARLINK-3126,PAYLOAD,2023-04-17 11:44:18,15.08834539,0.0001088,53.2156,275.0753,108.5162,251.5948,2.9874e-05,1.88e-06,0.0,0 STARLINK-3126,1 49444U 21104AN  23107.48910471  .00000188  00000-0  29874-4 0  9991,2 49444  53.2156 275.0753 0001088 108.5162 251.5948 15.08834539 79318,6917.897,95.438,540.515,539.009,0.0
49444.0,STARLINK-3126,PAYLOAD,2023-04-17 16:30:27,15.0884166,0.000116,53.2158,274.1838,103.6104,256.5017,0.00018203,2.61e-05,0.0,0 STARLINK-3126,1 49444U 21104AN  23107.68782237  .00002610  00000-0  18203-3 0  9995,2 49444  53.2158 274.1838 0001160 103.6104 256.5017 15.08841660 79345,6917.875,95.437,540.543,538.938,0.0
49444.0,STARLINK-3126,PAYLOAD,2023-04-18 09:59:42,15.08842932,0.0001417,53.2156,270.9093,102.7831,257.3319,0.00029107,4.348e-05,0.0,0 STARLINK-3126,1 49444U 21104AN  23108.41646360  .00004348  00000-0  29107-3 0  9998,2 49444  53.2156 270.9093 0001417 102.7831 257.3319 15.08842932 79451,6917.871,95.437,540.717,538.756,0.0
49444.0,STARLINK-3126,PAYLOAD,2023-04-18 17:56:38,15.08846371,9.28e-05,53.2152,269.4265,103.592,256.5176,0.00030506,4.571e-05,0.0,0 STARLINK-3126,1 49444U 21104AN  23108.74766210  .00004571  00000-0  30506-3 0  9994,2 49444  53.2152 269.4265 0000928 103.5920 256.5176 15.08846371 79504,6917.861,95.437,540.368,539.084,0.0
49444.0,STARLINK-3126,PAYLOAD,2023-04-19 03:28:56,15.08839525,8.18e-05,53.2149,267.639,92.5965,267.5121,0.00026134,3.874e-05,0.0,0 STARLINK-3126,1 49444U 21104AN  23109.14510342  .00003874  00000-0  26134-3 0  9999,2 49444  53.2149 267.6390 0000818  92.5965 267.5121 15.08839525 80634,6917.882,95.438,540.313,539.181,0.0
49444.0,STARLINK-3126,PAYLOAD,2023-04-19 09:50:29,15.08845465,8.61e-05,53.2148,266.4521,100.7322,259.3767,0.00057036,8.802e-05,0.0,0 STARLINK-3126,1 49444U 21104AN  23109.41006337  .00008802  00000-0  57036-3 0  9994,2 49444  53.2148 266.4521 0000861 100.7322 259.3767 15.08845465 79603,6917.864,95.437,540.324,539.133,0.0
49444.0,STARLINK-3126,PAYLOAD,2023-04-19 16:12:01,15.08855545,8.67e-05,53.2152,265.2622,95.6018,264.5073,0.00090685,0.0001418,0.0,0 STARLINK-3126,1 49444U 21104AN  23109.67502215  .00014180  00000-0  90685-3 0  9991,2 49444  53.2152 265.2622 0000867  95.6018 264.5073 15.08855545 79649,6917.833,95.437,540.298,539.098,0.0
49444.0,STARLINK-3126,PAYLOAD,2023-04-20 03:19:43,15.08847712,9.5e-05,53.2155,263.1826,81.0306,279.0794,0.00052616,8.098e-05,0.0,0 STARLINK-3126,1 49444U 21104AN  23110.13870226  .00008098  00000-0  52616-3 0  9997,2 49444  53.2155 263.1826 0000950  81.0306 279.0794 15.08847712 79713,6917.857,95.437,540.379,539.065,0.0
49444.0,STARLINK-3126,PAYLOAD,2023-04-20 16:02:49,15.08839998,0.0001144,53.2161,260.8038,82.7903,277.3219,9.2301e-05,1.181e-05,0.0,0 STARLINK-3126,1 49444U 21104AN  23110.66862471  .00001181  00000-0  92301-4 0  9990,2 49444  53.2161 260.8038 0001144  82.7903 277.3219 15.08839998 79794,6917.88,95.438,540.537,538.954,0.0
49444.0,STARLINK-3126,PAYLOAD,2023-04-20 22:24:21,15.08844359,0.0001034,53.2162,259.6123,83.4733,276.6377,0.00011813,1.593e-05,0.0,0 STARLINK-3126,1 49444U 21104AN  23110.93358247  .00001593  00000-0  11813-3 0  9996,2 49444  53.2162 259.6123 0001034  83.4733 276.6377 15.08844359 79832,6917.867,95.437,540.447,539.017,0.0
49444.0,STARLINK-3126,PAYLOAD,2023-04-21 22:15:17,15.08629018,0.0001088,53.2163,255.1547,88.4994,271.6122,-0.0036045,-0.00056871,0.0,0 STARLINK-3126,1 49444U 21104AN  23111.92728871 -.00056871  00000-0 -36045-2 0  9994,2 49444  53.2163 255.1547 0001088  88.4994 271.6122 15.08629018 79989,6918.525,95.451,541.143,539.638,0.0
49444.0,STARLINK-3126,PAYLOAD,2023-04-22 01:26:11,15.08550141,0.0001651,53.2163,254.5602,56.6126,303.5023,-0.0038014,-0.00059811,0.0,0 STARLINK-3126,1 49444U 21104AN  23112.05985177 -.00059811  00000-0 -38014-2 0  9998,2 49444  53.2163 254.5602 0001651  56.6126 303.5023 15.08550141 80004,6918.767,95.456,541.774,539.489,0.0
49444.0,STARLINK-3126,PAYLOAD,2023-04-22 20:31:18,15.08291885,9.05e-05,53.215,250.9958,89.7305,270.379,-0.0054083,-0.00084087,0.0,0 STARLINK-3126,1 49444U 21104AN  23112.85506969 -.00084087  00000-0 -54083-2 0  9991,2 49444  53.2150 250.9958 0000905  89.7305 270.3790 15.08291885 81191,6919.556,95.472,542.047,540.795,0.0
49444.0,STARLINK-3126,PAYLOAD,2023-04-23 01:17:42,15.08320675,0.0001121,53.2158,250.1013,105.51,254.6016,-0.0035682,-0.00055839,0.0,0 STARLINK-3126,1 49444U 21104AN  23113.05396019 -.00055839  00000-0 -35682-2 0  9994,2 49444  53.2158 250.1013 0001121 105.5100 254.6016 15.08320675 81224,6919.468,95.47,542.109,540.558,0.0
49444.0,STARLINK-3126,PAYLOAD,2023-04-23 15:36:16,15.08442683,0.0001672,53.2171,247.4261,121.6102,238.5053,-0.001599,-0.00025372,0.0,0 STARLINK-3126,1 49444U 21104AN  23113.65018567 -.00025372  00000-0 -15990-2 0  9998,2 49444  53.2171 247.4261 0001672 121.6102 238.5053 15.08442683 81311,6919.095,95.463,542.117,539.803,0.0
49444.0,STARLINK-3126,PAYLOAD,2023-04-24 09:05:35,15.08532946,0.0001847,53.2172,244.1556,86.2983,273.822,0.0021404,0.00033654,0.0,0 STARLINK-3126,1 49444U 21104AN  23114.37887897  .00033654  00000-0  21404-2 0  9995,2 49444  53.2172 244.1556 0001847  86.2983 273.8220 15.08532946 80353,6918.819,95.457,541.962,539.406,0.0
49444.0,STARLINK-3126,PAYLOAD,2023-04-25 08:56:42,15.08626177,0.0001221,53.2162,239.6962,130.2859,229.824,0.0040511,0.00064396,0.0,0 STARLINK-3126,1 49444U 21104AN  23115.37271472  .00064396  00000-0  40511-2 0  9999,2 49444  53.2162 239.6962 0001221 130.2859 229.8240 15.08626177 80500,6918.534,95.451,541.244,539.554,0.0
49444.0,STARLINK-3126,PAYLOAD,2023-04-26 11:58:10,15.08838915,0.0002021,53.215,234.6406,84.4295,275.6928,0.00058467,9.029e-05,0.0,0 STARLINK-3126,1 49444U 21104AN  23116.49873173  .00009029  00000-0  58467-3 0  9991,2 49444  53.2150 234.6406 0002021  84.4295 275.6928 15.08838915 80673,6917.884,95.438,541.147,538.351,0.0
49444.0,STARLINK-3126,PAYLOAD,2023-04-26 18:19:42,15.08853912,0.0001938,53.215,233.4506,80.6884,279.4327,0.00072431,0.00011263,0.0,0 STARLINK-3126,1 49444U 21104AN  23116.76368541  .00011263  00000-0  72431-3 0  9999,2 49444  53.2150 233.4506 0001938  80.6884 279.4327 15.08853912 80713,6917.838,95.437,541.044,538.362,0.0
49444.0,STARLINK-3126,PAYLOAD,2023-04-27 11:48:57,15.08846839,0.0001711,53.2175,230.1841,54.5202,305.595,0.00052283,8.044e-05,0.0,0 STARLINK-3126,1 49444U 21104AN  23117.49232661  .00008044  00000-0  52283-3 0  9999,2 49444  53.2175 230.1841 0001711  54.5202 305.5950 15.08846839 80824,6917.859,95.437,540.908,538.541,0.0
